COSMOS 2251 DEB         
1 40231U 93036BVL 17345.42796674  .00002173  00000-0  22855-3 0  9994
2 40231  74.0132 243.5298 0062213  12.1972 348.0696 14.88700172175083
